NORAD_CAT_ID,OBJECT_NAME,OBJECT_TYPE,EPOCH,MEAN_MOTION,ECCENTRICITY,INCLINATION,RA_OF_ASC_NODE,ARG_OF_PERICENTER,MEAN_ANOMALY,BSTAR,MEAN_MOTION_DOT,MEAN_MOTION_DDOT,TLE_LINE0,TLE_LINE1,TLE_LINE2,SEMIMAJOR_AXIS,PERIOD,APOGEE,PERIGEE,DECAYED
53285.0,STARLINK-4173,PAYLOAD,2022-09-18 14:00:01,15.73269288,0.0001827,53.2156,125.9442,37.5618,48.1276,-0.00083956,-0.00117175,0.0,0 STARLINK-4173,1 53285U 22086AV  22261.58335648 -.00117175  00000-0 -83956-3 0  9994,2 53285  53.2156 125.9442 0001827  37.5618  48.1276 15.73269288  1305,6727.698,91.529,350.792,348.333,0.0
53285.0,STARLINK-4173,PAYLOAD,2022-09-18 22:00:00,15.73096109,0.0002,53.2157,124.2966,31.3496,143.2622,0.00047556,0.00066356,0.0,0 STARLINK-4173,1 53285U 22086AV  22261.91667824  .00066356  00000-0  47556-3 0  9993,2 53285  53.2157 124.2966 0002000  31.3496 143.2622 15.73096109  1301,6728.191,91.539,351.402,348.711,0.0
53285.0,STARLINK-4173,PAYLOAD,2022-09-19 06:00:02,15.73205621,0.0001733,53.2172,122.6214,43.6838,219.9055,-2.2517e-05,-3.78e-05,0.0,0 STARLINK-4173,1 53285U 22086AV  22262.25002315 -.00003780  00000-0 -22517-4 0  9994,2 53285  53.2172 122.6214 0001733  43.6838 219.9055 15.73205621  9551,6727.879,91.533,350.91,348.57800000000015,0.0
53285.0,STARLINK-4173,PAYLOAD,2022-09-19 14:00:01,15.7323853,0.0001701,53.2154,120.9959,33.4672,318.996,0.00038675,0.00054099,0.0,0 STARLINK-4173,1 53285U 22086AV  22262.58334491  .00054099  00000-0  38675-3 0  9991,2 53285  53.2154 120.9959 0001701  33.4672 318.9960 15.73238530  1301,6727.785,91.531,350.795,348.506,0.0
53285.0,STARLINK-4173,PAYLOAD,2022-09-19 22:00:00,15.73228352,0.0001846,53.2154,119.3485,26.7804,54.6684,-7.4445e-05,-0.00011068,0.0,0 STARLINK-4173,1 53285U 22086AV  22262.91667824 -.00011068  00000-0 -74445-4 0  9994,2 53285  53.2154 119.3485 0001846  26.7804  54.6684 15.73228352  9664,6727.814,91.532,350.921,348.43699999999984,0.0
53285.0,STARLINK-4173,PAYLOAD,2022-09-20 14:00:01,15.73186454,0.0001704,53.2159,116.0471,30.3521,229.0317,4.2086e-05,5.286e-05,0.0,0 STARLINK-4173,1 53285U 22086AV  22263.58334491  .00005286  00000-0  42086-4 0  9998,2 53285  53.2159 116.0471 0001704  30.3521 229.0317 15.73186454  1308,6727.934,91.534,350.945,348.652,0.0
53285.0,STARLINK-4173,PAYLOAD,2022-09-20 22:00:01,15.73220319,0.0002003,53.2159,114.3998,27.4098,320.9686,-0.00041356,-0.00058316,0.0,0 STARLINK-4173,1 53285U 22086AV  22263.91668981 -.00058316  00000-0 -41356-3 0  9991,2 53285  53.2159 114.3998 0002003  27.4098 320.9686 15.73220319  9815,6727.837,91.532,351.05,348.355,0.0
53285.0,STARLINK-4173,PAYLOAD,2022-09-21 06:00:00,15.73209991,0.0001976,53.2155,112.7492,31.807,45.4616,-0.00014431,-0.00020834,0.0,0 STARLINK-4173,1 53285U 22086AV  22264.25001157 -.00020834  00000-0 -14431-3 0  9993,2 53285  53.2155 112.7492 0001976  31.8070  45.4616 15.73209991  9870,6727.8669999999975,91.533,351.061,348.402,0.0
53285.0,STARLINK-4173,PAYLOAD,2022-09-21 22:00:00,15.73188929,0.0002198999999999,53.2157,109.4498,33.7717,221.3875,0.00038632,0.00053923,0.0,0 STARLINK-4173,1 53285U 22086AV  22264.91667824  .00053923  00000-0  38632-3 0  9997,2 53285  53.2157 109.4498 0002199  33.7717 221.3875 15.73188929  1307,6727.927,91.534,351.271,348.31199999999984,0.0
53285.0,STARLINK-4173,PAYLOAD,2022-09-22 06:00:00,15.73197575,0.0002002,53.216,107.7938,30.7779,313.2618,-0.00040186,-0.0005664,0.0,0 STARLINK-4173,1 53285U 22086AV  22265.25001157 -.00056640  00000-0 -40186-3 0  9994,2 53285  53.2160 107.7938 0002002  30.7779 313.2618 15.73197575 10021,6727.901999999999,91.533,351.11400000000015,348.42,0.0
53285.0,STARLINK-4173,PAYLOAD,2022-09-22 14:00:01,15.73193289,0.0002043,53.2167,106.1341,32.7453,40.2044,-0.0035769,-0.00475224,0.0,0 STARLINK-4173,1 53285U 22086AV  22265.58334491 -.00475224  00000-0 -35769-2 0  9993,2 53285  53.2167 106.1341 0002043  32.7453  40.2044 15.73193289 10089,6727.9140000000025,91.534,351.154,348.405,0.0
53285.0,STARLINK-4173,PAYLOAD,2022-09-22 22:00:00,15.72788311,0.0002003,53.2178,104.485,36.2924,125.4609,-0.0064960999999999,-0.0081435,0.0,0 STARLINK-4173,1 53285U 22086AV  22265.91667824 -.00814350  00000-0 -64961-2 0  9992,2 53285  53.2178 104.4850 0002003  36.2924 125.4609 15.72788311  1308,6729.069,91.557,352.282,349.586,0.0
53285.0,STARLINK-4173,PAYLOAD,2022-09-23 06:00:00,15.72202977,0.0001716,53.2176,102.8346,32.8216,217.0195,-0.0087566,-0.01059153,0.0,0 STARLINK-4173,1 53285U 22086AV  22266.25001157 -.01059153  00000-0 -87566-2 0  9990,2 53285  53.2176 102.8346 0001716  32.8216 217.0195 15.72202977 10187,6730.739000000001,91.591,353.759,351.449,0.0
53285.0,STARLINK-4173,PAYLOAD,2022-09-23 14:00:01,15.71471129,0.0005872999999999,53.2166,101.1938,272.3109,64.7743,-0.0093723,-0.01096935,0.0,0 STARLINK-4173,1 53285U 22086AV  22266.58334491 -.01096935  00000-0 -93723-2 0  9997,2 53285  53.2166 101.1938 0005873 272.3109  64.7743 15.71471129  1301,6732.829000000002,91.634,358.648,350.74,0.0
53285.0,STARLINK-4173,PAYLOAD,2022-09-23 22:00:00,15.70709623,0.0001459,53.2172,99.5535,25.7053,37.7242,-0.0096125,-0.01087691,0.0,0 STARLINK-4173,1 53285U 22086AV  22266.91667824 -.01087691  00000-0 -96125-2 0  9991,2 53285  53.2172  99.5535 0001459  25.7053  37.7242 15.70709623  1301,6735.005,91.678,357.852,355.88699999999994,0.0
53285.0,STARLINK-4173,PAYLOAD,2022-09-24 14:00:01,15.69180572,0.0001523,53.2169,96.2719,42.3134,191.1459,-0.01012,-0.01075362,0.0,0 STARLINK-4173,1 53285U 22086AV  22267.58335648 -.01075362  00000-0 -10120-1 0  9993,2 53285  53.2169  96.2719 0001523  42.3134 191.1459 15.69180572  1301,6739.379,91.768,362.271,360.218,0.0
53285.0,STARLINK-4173,PAYLOAD,2022-09-24 22:00:00,15.68403312,0.0001595999999999,53.2177,94.6377,34.2421,282.7695,-0.0102189999999999,-0.01053826,0.0,0 STARLINK-4173,1 53285U 22086AV  22267.91667824 -.01053826  00000-0 -10219-1 0  9994,2 53285  53.2177  94.6377 0001596  34.2421 282.7695 15.68403312  1309,6741.606,91.813,364.547,362.395,0.0
53285.0,STARLINK-4173,PAYLOAD,2022-09-25 06:00:00,15.67642582,0.0001385,53.2177,93.0018,38.4168,1.2926,-0.0105209999999999,-0.01051605,0.0,0 STARLINK-4173,1 53285U 22086AV  22268.25001157 -.01051605  00000-0 -10521-1 0  9992,2 53285  53.2177  93.0018 0001385  38.4168   1.2926 15.67642582 10500,6743.786,91.858,366.585,364.717,0.0
53285.0,STARLINK-4173,PAYLOAD,2022-09-25 14:00:01,15.66881661,0.0001524,53.2178,91.3694,42.9753,78.518,-0.01082,-0.01048669,0.0,0 STARLINK-4173,1 53285U 22086AV  22268.58334491 -.01048669  00000-0 -10820-1 0  9996,2 53285  53.2178  91.3694 0001524  42.9753  78.5180 15.66881661  1306,6745.97,91.902,368.86300000000006,366.806,0.0
53285.0,STARLINK-4173,PAYLOAD,2022-09-25 22:00:01,15.66120472,0.0001659,53.2176,89.7408,40.8245,161.6043,-0.011124,-0.01045626,0.0,0 STARLINK-4173,1 53285U 22086AV  22268.91668981 -.01045626  00000-0 -11124-1 0  9995,2 53285  53.2176  89.7408 0001659  40.8245 161.6043 15.66120472 10601,6748.155,91.947,371.14,368.901,0.0
53285.0,STARLINK-4173,PAYLOAD,2022-09-26 14:00:01,15.64728622,0.0001181,53.217,86.4816,27.6138,333.685,-0.013721,-0.01220209,0.0,0 STARLINK-4173,1 53285U 22086AV  22269.58334491 -.01220209  00000-0 -13721-1 0  9992,2 53285  53.2170  86.4816 0001181  27.6138 333.6850 15.64728622 10714,6752.156,92.029,374.819,373.224,0.0
53285.0,STARLINK-4173,PAYLOAD,2022-09-26 22:00:00,15.63855532,0.0001565999999999,53.2171,84.859,36.9511,42.5433,-0.012408,-0.01079504,0.0,0 STARLINK-4173,1 53285U 22086AV  22269.91667824 -.01079504  00000-0 -12408-1 0  9999,2 53285  53.2171  84.8590 0001566  36.9511  42.5433 15.63855532 10769,6754.669,92.08,377.592,375.476,0.0
53285.0,STARLINK-4173,PAYLOAD,2022-09-27 14:00:01,15.62359529,0.0001595,53.2173,81.6125,42.2412,190.7699,-0.0135539999999999,-0.01108595,0.0,0 STARLINK-4173,1 53285U 22086AV  22270.58334491 -.01108595  00000-0 -13554-1 0  9991,2 53285  53.2173  81.6125 0001595  42.2412 190.7699 15.62359529  1306,6758.98,92.168,381.923,379.767,0.0
53285.0,STARLINK-4173,PAYLOAD,2022-09-27 22:00:01,15.61564463,0.0001623,53.2176,79.9969,34.2319,274.2553,-0.013336,-0.01061852,0.0,0 STARLINK-4173,1 53285U 22086AV  22270.91668981 -.01061852  00000-0 -13336-1 0  9994,2 53285  53.2176  79.9969 0001623  34.2319 274.2553 15.61564463  1305,6761.274,92.215,384.237,382.042,0.0
53285.0,STARLINK-4173,PAYLOAD,2022-09-28 14:00:01,15.60046921,0.0001747,53.2176,76.7622,33.0028,63.4715,-0.014177,-0.0106414,0.0,0 STARLINK-4173,1 53285U 22086AV  22271.58334491 -.01064140  00000-0 -14177-1 0  9991,2 53285  53.2176  76.7622 0001747  33.0028  63.4715 15.60046921 11028,6765.658,92.305,388.705,386.341,0.0
53285.0,STARLINK-4173,PAYLOAD,2022-09-28 22:00:00,15.59281936,0.0001865999999999,53.2173,75.1499,33.2628,135.8693,-0.014454,-0.01054486,0.0,0 STARLINK-4173,1 53285U 22086AV  22271.91667824 -.01054486  00000-0 -14454-1 0  9997,2 53285  53.2173  75.1499 0001866  33.2628 135.8693 15.59281936  1304,6767.871,92.35,390.999,388.473,0.0
53285.0,STARLINK-4173,PAYLOAD,2022-09-29 14:00:01,15.5782409,0.0001317,53.2173,71.9239,6.3819,305.2968,-0.01656,-0.01134317,0.0,0 STARLINK-4173,1 53285U 22086AV  22272.58334491 -.01134317  00000-0 -16560-1 0  9994,2 53285  53.2173  71.9239 0001317   6.3819 305.2968 15.57824090 11170,6772.093000000003,92.437,394.85,393.066,0.0
53285.0,STARLINK-4173,PAYLOAD,2022-09-29 22:00:00,15.5706414,0.0001563,53.2171,70.3178,31.1705,350.4268,-0.017051,-0.01134936,0.0,0 STARLINK-4173,1 53285U 22086AV  22272.91667824 -.01134936  00000-0 -17051-1 0  9993,2 53285  53.2171  70.3178 0001563  31.1705 350.4268 15.57064140  1307,6774.295999999999,92.482,397.22,395.102,0.0
53285.0,STARLINK-4173,PAYLOAD,2022-09-30 06:00:02,15.5624641,0.0001628,53.2175,68.7106,34.6088,56.0896,-0.016278,-0.01058259,0.0,0 STARLINK-4173,1 53285U 22086AV  22273.25002315 -.01058259  00000-0 -16278-1 0  9992,2 53285  53.2175  68.7106 0001628  34.6088  56.0896 15.56246410 11282,6776.669,92.53,399.637,397.431,0.0
